{
  "tokyo_jr": {
    "yamanote": {
      "name": "JR山手線",
      "name_zh": "JR山手线",
      "name_en": "JR Yamanote Line",
      "region": "tokyo",
      "stations": ["東京", "有楽町", "新橋", "浜松町", "田町", "品川", "大崎", "五反田", "目黒", "恵比寿", "渋谷", "原宿", "代々木", "新宿", "新大久保", "高田馬場", "目白", "池袋", "大塚", "巣鴨", "駒込", "田端", "西日暮里", "日暮里", "鶯谷", "上野", "御徒町", "秋葉原", "神田"]
    },
    "chuo": {
      "name": "JR中央線",
      "name_zh": "JR中央线",
      "name_en": "JR Chuo Line",
      "region": "tokyo",
      "stations": ["東京", "神田", "御茶ノ水", "水道橋", "飯田橋", "市ヶ谷", "四ツ谷", "信濃町", "千駄ケ谷", "代々木", "新宿", "大久保", "東中野", "中野", "高円寺", "阿佐ケ谷", "荻窪", "西荻窪", "吉祥寺", "三鷹", "武蔵境", "東小金井", "武蔵小金井", "国分寺", "西国分寺", "国立", "立川", "日野", "豊田", "八王子", "西八王子", "高尾"]
    },
    "sobu": {
      "name": "JR総武線",
      "name_zh": "JR总武线",
      "name_en": "JR Sobu Line",
      "region": "tokyo_chiba",
      "stations": ["千葉", "西千葉", "稲毛", "新検見川", "幕張", "幕張本郷", "津田沼", "東船橋", "船橋", "西船橋", "下総中山", "本八幡", "市川", "小岩", "新小岩", "平井", "亀戸", "錦糸町", "両国", "浅草橋", "秋葉原", "御茶ノ水", "水道橋", "飯田橋", "市ヶ谷", "四ツ谷", "信濃町", "千駄ケ谷", "代々木", "新宿"]
    },
    "keihin_tohoku": {
      "name": "JR京浜東北線",
      "name_zh": "JR京滨东北线",
      "name_en": "JR Keihin-Tohoku Line",
      "region": "tokyo_kanagawa",
      "stations": ["大宮", "さいたま新都心", "与野", "北浦和", "浦和", "南浦和", "蕨", "西川口", "川口", "赤羽", "東十条", "王子", "上中里", "田端", "西日暮里", "日暮里", "鶯谷", "上野", "御徒町", "秋葉原", "神田", "東京", "有楽町", "新橋", "浜松町", "田町", "高輪ゲートウェイ", "品川", "大井町", "大森", "蒲田", "川崎", "鶴見", "新子安", "東神奈川", "横浜", "桜木町", "関内", "石川町", "山手", "根岸", "磯子", "新杉田", "洋光台", "港南台", "本郷台", "大船"]
    },
    "saikyo": {
      "name": "JR埼京線",
      "name_zh": "JR埼京线",
      "name_en": "JR Saikyo Line",
      "region": "tokyo_saitama",
      "stations": ["大宮", "日進", "西大宮", "指扇", "南古谷", "川越", "南与野", "与野本町", "北戸田", "戸田公園", "戸田", "浮間舟渡", "北赤羽", "赤羽", "十条", "板橋", "池袋", "新宿", "渋谷", "恵比寿", "大崎", "りんかい線直通"]
    },
    "joban": {
      "name": "JR常磐線",
      "name_zh": "JR常磐线",
      "name_en": "JR Joban Line",
      "region": "tokyo_chiba",
      "stations": ["上野", "日暮里", "三河島", "南千住", "北千住", "松戸", "柏", "我孫子", "取手", "藤代", "龍ケ崎市", "牛久", "ひたち野うしく", "荒川沖", "土浦", "神立", "高浜", "石岡", "羽鳥", "岩間", "友部", "内原", "赤塚", "偕楽園", "水戸"]
    },
    "yokosuka": {
      "name": "JR横須賀線",
      "name_zh": "JR横须贺线",
      "name_en": "JR Yokosuka Line",
      "region": "tokyo_kanagawa",
      "stations": ["東京", "新橋", "品川", "西大井", "武蔵小杉", "新川崎", "横浜", "保土ケ谷", "東戸塚", "戸塚", "大船", "北鎌倉", "鎌倉", "逗子", "東逗子", "田浦", "横須賀", "衣笠", "久里浜"]
    },
    "shonan_shinjuku": {
      "name": "JR湘南新宿ライン",
      "name_zh": "JR湘南新宿线",
      "name_en": "JR Shonan-Shinjuku Line",
      "region": "tokyo_kanagawa_saitama",
      "stations": ["大宮", "浦和", "赤羽", "池袋", "新宿", "渋谷", "恵比寿", "大崎", "武蔵小杉", "横浜", "戸塚", "大船", "藤沢", "茅ケ崎", "平塚", "国府津", "小田原"]
    }
  },
  "tokyo_metro": {
    "ginza": {
      "name": "銀座線",
      "name_zh": "银座线",
      "name_en": "Ginza Line",
      "region": "tokyo",
      "stations": ["渋谷", "表参道", "外苑前", "青山一丁目", "赤坂見附", "溜池山王", "虎ノ門", "新橋", "銀座", "京橋", "日本橋", "三越前", "神田", "末広町", "上野広小路", "上野", "稲荷町", "田原町", "浅草"]
    },
    "marunouchi": {
      "name": "丸ノ内線",
      "name_zh": "丸之内线",
      "name_en": "Marunouchi Line",
      "region": "tokyo",
      "stations": ["荻窪", "南阿佐ケ谷", "新高円寺", "東高円寺", "新中野", "中野坂上", "西新宿", "新宿", "新宿三丁目", "新宿御苑前", "四谷三丁目", "四ツ谷", "赤坂見附", "国会議事堂前", "霞ケ関", "銀座", "東京", "大手町", "淡路町", "御茶ノ水", "本郷三丁目", "後楽園", "茗荷谷", "新大塚", "池袋"]
    },
    "hibiya": {
      "name": "日比谷線",
      "name_zh": "日比谷线",
      "name_en": "Hibiya Line",
      "region": "tokyo",
      "stations": ["北千住", "南千住", "三ノ輪", "入谷", "上野", "仲御徒町", "秋葉原", "小伝馬町", "人形町", "茅場町", "八丁堀", "築地", "東銀座", "銀座", "日比谷", "霞ケ関", "虎ノ門ヒルズ", "神谷町", "六本木", "広尾", "恵比寿", "中目黒"]
    },
    "tozai": {
      "name": "東西線",
      "name_zh": "东西线",
      "name_en": "Tozai Line",
      "region": "tokyo_chiba",
      "stations": ["中野", "落合", "高田馬場", "早稲田", "神楽坂", "飯田橋", "九段下", "竹橋", "大手町", "日本橋", "茅場町", "門前仲町", "木場", "東陽町", "南砂町", "西葛西", "葛西", "浦安", "南行徳", "行徳", "妙典", "原木中山", "西船橋"]
    },
    "chiyoda": {
      "name": "千代田線",
      "name_zh": "千代田线",
      "name_en": "Chiyoda Line",
      "region": "tokyo_saitama",
      "stations": ["代々木上原", "代々木公園", "明治神宮前", "表参道", "乃木坂", "赤坂", "国会議事堂前", "霞ケ関", "日比谷", "二重橋前", "大手町", "新御茶ノ水", "湯島", "根津", "千駄木", "西日暮里", "町屋", "北千住", "綾瀬", "北綾瀬"]
    },
    "yurakucho": {
      "name": "有楽町線",
      "name_zh": "有乐町线",
      "name_en": "Yurakucho Line",
      "region": "tokyo_saitama",
      "stations": ["和光市", "地下鉄成増", "地下鉄赤塚", "平和台", "氷川台", "小竹向原", "千川", "要町", "池袋", "東池袋", "護国寺", "江戸川橋", "飯田橋", "市ヶ谷", "麹町", "永田町", "桜田門", "有楽町", "銀座一丁目", "新富町", "月島", "豊洲", "辰巳", "新木場"]
    },
    "hanzomon": {
      "name": "半蔵門線",
      "name_zh": "半藏门线",
      "name_en": "Hanzomon Line",
      "region": "tokyo_saitama",
      "stations": ["渋谷", "表参道", "青山一丁目", "永田町", "半蔵門", "九段下", "神保町", "大手町", "三越前", "水天宮前", "清澄白河", "住吉", "錦糸町", "押上"]
    },
    "namboku": {
      "name": "南北線",
      "name_zh": "南北线",
      "name_en": "Namboku Line",
      "region": "tokyo_saitama",
      "stations": ["目黒", "白金台", "白金高輪", "麻布十番", "六本木一丁目", "溜池山王", "永田町", "四ツ谷", "市ヶ谷", "飯田橋", "後楽園", "東大前", "本駒込", "駒込", "西ケ原", "王子", "王子神谷", "志茂", "赤羽岩淵"]
    },
    "fukutoshin": {
      "name": "副都心線",
      "name_zh": "副都心线",
      "name_en": "Fukutoshin Line",
      "region": "tokyo_saitama",
      "stations": ["和光市", "地下鉄成増", "地下鉄赤塚", "平和台", "氷川台", "小竹向原", "千川", "要町", "池袋", "雑司が谷", "西早稲田", "東新宿", "新宿三丁目", "北参道", "明治神宮前", "渋谷"]
    }
  },
  "tokyo_private": {
    "keio": {
      "name": "京王線",
      "name_zh": "京王线",
      "name_en": "Keio Line",
      "region": "tokyo",
      "stations": ["新宿", "初台", "幡ヶ谷", "笹塚", "代田橋", "明大前", "下高井戸", "桜上水", "上北沢", "八幡山", "芦花公園", "千歳烏山", "仙川", "つつじヶ丘", "柴崎", "国領", "布田", "調布", "西調布", "飛田給", "武蔵野台", "多磨霊園", "東府中", "府中", "分倍河原", "中河原", "聖蹟桜ヶ丘", "百草園", "高幡不動", "南平", "平山城址公園", "長沼", "北野"]
    },
    "keio_inokashira": {
      "name": "京王井の頭線",
      "name_zh": "京王井之头线",
      "name_en": "Keio Inokashira Line",
      "region": "tokyo",
      "stations": ["渋谷", "神泉", "駒場東大前", "池ノ上", "下北沢", "新代田", "東松原", "明大前", "永福町", "西永福", "浜田山", "高井戸", "富士見ヶ丘", "久我山", "三鷹台", "井の頭公園", "吉祥寺"]
    },
    "odakyu": {
      "name": "小田急線",
      "name_zh": "小田急线",
      "name_en": "Odakyu Line",
      "region": "tokyo_kanagawa",
      "stations": ["新宿", "南新宿", "参宮橋", "代々木八幡", "代々木上原", "東北沢", "下北沢", "世田谷代田", "梅ヶ丘", "豪徳寺", "経堂", "千歳船橋", "祖師ヶ谷大蔵", "成城学園前", "喜多見", "狛江", "和泉多摩川", "登戸", "向ヶ丘遊園", "生田", "読売ランド前", "百合ヶ丘", "新百合ヶ丘", "柿生", "鶴川", "玉川学園前", "町田", "相模大野", "小田急相模原", "相武台前", "座間", "海老名", "厚木", "本厚木", "愛甲石田", "伊勢原", "鶴巻温泉", "東海大学前", "秦野", "渋沢", "新松田", "開成", "栢山", "富水", "螢田", "足柄", "小田原"]
    },
    "tokyu_toyoko": {
      "name": "東急東横線",
      "name_zh": "东急东横线",
      "name_en": "Tokyu Toyoko Line",
      "region": "tokyo_kanagawa",
      "stations": ["渋谷", "代官山", "中目黒", "祐天寺", "学芸大学", "都立大学", "自由が丘", "田園調布", "多摩川", "新丸子", "武蔵小杉", "元住吉", "日吉", "綱島", "大倉山", "菊名", "妙蓮寺", "白楽", "東白楽", "反町", "横浜"]
    },
    "tokyu_denentoshi": {
      "name": "東急田園都市線",
      "name_zh": "东急田园都市线",
      "name_en": "Tokyu Den-en-toshi Line",
      "region": "tokyo_kanagawa",
      "stations": ["渋谷", "池尻大橋", "三軒茶屋", "駒沢大学", "桜新町", "用賀", "二子玉川", "二子新地", "高津", "溝の口", "梶が谷", "宮崎台", "宮前平", "鷺沼", "たまプラーザ", "あざみ野", "江田", "市が尾", "藤が丘", "青葉台", "田奈", "長津田", "つくし野", "すずかけ台", "南町田グランベリーパーク", "つきみ野", "中央林間"]
    },
    "tokyu_meguro": {
      "name": "東急目黒線",
      "name_zh": "东急目黑线",
      "name_en": "Tokyu Meguro Line",
      "region": "tokyo_kanagawa",
      "stations": ["目黒", "不動前", "武蔵小山", "西小山", "洗足", "大岡山", "奥沢", "田園調布", "多摩川", "新丸子", "武蔵小杉", "元住吉", "日吉"]
    },
    "tokyu_oimachi": {
      "name": "東急大井町線",
      "name_zh": "东急大井町线",
      "name_en": "Tokyu Oimachi Line",
      "region": "tokyo_kanagawa",
      "stations": ["大井町", "下神明", "戸越公園", "中延", "荏原町", "旗の台", "北千束", "大岡山", "緑が丘", "自由が丘", "九品仏", "尾山台", "等々力", "上野毛", "二子玉川", "二子新地", "高津", "溝の口"]
    },
    "seibu_shinjuku": {
      "name": "西武新宿線",
      "name_zh": "西武新宿线",
      "name_en": "Seibu Shinjuku Line",
      "region": "tokyo_saitama",
      "stations": ["西武新宿", "高田馬場", "下落合", "中井", "新井薬師前", "沼袋", "野方", "都立家政", "鷺ノ宮", "下井草", "井荻", "上井草", "上石神井", "武蔵関", "東伏見", "西武柳沢", "田無", "花小金井", "小平", "久米川", "東村山", "所沢", "航空公園", "新所沢", "入曽", "狭山市", "新狭山", "南大塚", "本川越"]
    },
    "seibu_ikebukuro": {
      "name": "西武池袋線",
      "name_zh": "西武池袋线",
      "name_en": "Seibu Ikebukuro Line",
      "region": "tokyo_saitama",
      "stations": ["池袋", "椎名町", "東長崎", "江古田", "桜台", "練馬", "中村橋", "富士見台", "練馬高野台", "石神井公園", "大泉学園", "保谷", "ひばりヶ丘", "東久留米", "清瀬", "秋津", "所沢", "西所沢", "小手指", "狭山ヶ丘", "武蔵藤沢", "稲荷山公園", "入間市", "仏子", "元加治", "飯能"]
    },
    "tobu_tojo": {
      "name": "東武東上線",
      "name_zh": "东武东上线",
      "name_en": "Tobu Tojo Line",
      "region": "tokyo_saitama",
      "stations": ["池袋", "北池袋", "下板橋", "大山", "中板橋", "ときわ台", "上板橋", "東武練馬", "下赤塚", "成増", "和光市", "朝霞", "朝霞台", "志木", "柳瀬川", "みずほ台", "鶴瀬", "ふじみ野", "上福岡", "新河岸", "川越", "川越市", "霞ヶ関", "鶴ヶ島", "若葉", "坂戸", "北坂戸", "高坂", "東松山", "森林公園", "つきのわ", "武蔵嵐山", "小川町", "寄居"]
    },
    "tobu_skytree": {
      "name": "東武スカイツリーライン",
      "name_zh": "东武晴空塔线",
      "name_en": "Tobu Skytree Line",
      "region": "tokyo_saitama_chiba",
      "stations": ["浅草", "とうきょうスカイツリー", "押上", "曳舟", "東向島", "鐘ヶ淵", "堀切", "牛田", "北千住", "小菅", "五反野", "梅島", "西新井", "竹ノ塚", "谷塚", "草加", "獨協大学前", "新田", "蒲生", "新越谷", "越谷", "北越谷", "大袋", "せんげん台", "武里", "一ノ割", "春日部", "北春日部", "姫宮", "東武動物公園"]
    },
    "keisei": {
      "name": "京成本線",
      "name_zh": "京成本线",
      "name_en": "Keisei Main Line",
      "region": "tokyo_chiba",
      "stations": ["京成上野", "日暮里", "新三河島", "町屋", "千住大橋", "京成関屋", "堀切菖蒲園", "お花茶屋", "青砥", "京成高砂", "京成小岩", "江戸川", "国府台", "市川真間", "菅野", "京成八幡", "鬼越", "京成中山", "東中山", "京成西船", "海神", "京成船橋", "大神宮下", "船橋競馬場", "谷津", "京成津田沼", "京成大久保", "実籾", "八千代台", "京成大和田", "勝田台", "志津", "ユーカリが丘", "京成臼井", "京成佐倉", "大佐倉", "京成酒々井", "宗吾参道", "公津の杜", "京成成田", "空港第2ビル", "成田空港"]
    }
  },
  "kanagawa": {
    "yokohama_subway_blue": {
      "name": "横浜市営地下鉄ブルーライン",
      "name_zh": "横滨市营地铁蓝线",
      "name_en": "Yokohama Municipal Subway Blue Line",
      "region": "kanagawa",
      "stations": ["湘南台", "下飯田", "立場", "中田", "踊場", "戸塚", "舞岡", "下永谷", "上永谷", "港南中央", "上大岡", "弘明寺", "蒔田", "吉野町", "阪東橋", "伊勢佐木長者町", "関内", "桜木町", "高島町", "横浜", "三ツ沢下町", "三ツ沢上町", "片倉町", "岸根公園", "新横浜", "北新横浜", "新羽", "仲町台", "センター南", "センター北", "中川", "あざみ野"]
    },
    "yokohama_subway_green": {
      "name": "横浜市営地下鉄グリーンライン",
      "name_zh": "横滨市营地铁绿线",
      "name_en": "Yokohama Municipal Subway Green Line",
      "region": "kanagawa",
      "stations": ["中山", "川和町", "都筑ふれあいの丘", "センター南", "センター北", "北山田", "東山田", "高田", "日吉"]
    },
    "sotetsu": {
      "name": "相鉄本線",
      "name_zh": "相铁本线",
      "name_en": "Sotetsu Main Line",
      "region": "kanagawa",
      "stations": ["横浜", "平沼橋", "西横浜", "天王町", "星川", "和田町", "上星川", "西谷", "鶴ヶ峰", "二俣川", "希望ヶ丘", "三ツ境", "瀬谷", "大和", "相模大塚", "さがみ野", "かしわ台", "海老名"]
    },
    "minatomirai": {
      "name": "みなとみらい線",
      "name_zh": "港未来线",
      "name_en": "Minatomirai Line",
      "region": "kanagawa",
      "stations": ["横浜", "新高島", "みなとみらい", "馬車道", "日本大通り", "元町・中華街"]
    },
    "shonan_monorail": {
      "name": "湘南モノレール",
      "name_zh": "湘南单轨",
      "name_en": "Shonan Monorail",
      "region": "kanagawa",
      "stations": ["大船", "富士見町", "湘南町屋", "湘南深沢", "西鎌倉", "片瀬山", "目白山下", "湘南江の島"]
    }
  },
  "saitama": {
    "saitama_railway": {
      "name": "埼玉高速鉄道",
      "name_zh": "埼玉高速铁道",
      "name_en": "Saitama Railway",
      "region": "saitama",
      "stations": ["赤羽岩淵", "川口元郷", "南鳩ヶ谷", "鳩ヶ谷", "新井宿", "戸塚安行", "東川口", "浦和美園"]
    },
    "埼玉新都市交通": {
      "name": "ニューシャトル",
      "name_zh": "新穿梭",
      "name_en": "New Shuttle",
      "region": "saitama",
      "stations": ["大宮", "鉄道博物館", "加茂宮", "東宮原", "今羽", "吉野原", "原市", "沼南", "丸山", "志久", "伊奈中央", "羽貫", "内宿"]
    }
  },
  "chiba": {
    "keisei_chiba": {
      "name": "京成千葉線",
      "name_zh": "京成千叶线",
      "name_en": "Keisei Chiba Line",
      "region": "chiba",
      "stations": ["京成津田沼", "京成幕張本郷", "京成幕張", "検見川", "京成稲毛", "みどり台", "西登戸", "新千葉", "京成千葉", "千葉中央"]
    },
    "chiba_monorail": {
      "name": "千葉都市モノレール",
      "name_zh": "千叶都市单轨",
      "name_en": "Chiba Urban Monorail",
      "region": "chiba",
      "stations": ["千葉みなと", "市役所前", "千葉", "栄町", "葭川公園", "県庁前", "千葉公園", "作草部", "天台", "穴川", "スポーツセンター", "動物公園", "みつわ台", "都賀", "桜木", "小倉台", "千城台北", "千城台"]
    },
    "hokuso": {
      "name": "北総線",
      "name_zh": "北总线",
      "name_en": "Hokuso Line",
      "region": "chiba",
      "stations": ["京成高砂", "新柴又", "矢切", "北国分", "秋山", "東松戸", "松飛台", "大町", "新鎌ヶ谷", "西白井", "白井", "小室", "千葉ニュータウン中央", "印西牧の原", "印旛日本医大"]
    },
    "toyo_rapid": {
      "name": "東葉高速線",
      "name_zh": "东叶高速线",
      "name_en": "Toyo Rapid Railway",
      "region": "chiba",
      "stations": ["西船橋", "東海神", "飯山満", "北習志野", "船橋日大前", "八千代緑が丘", "八千代中央", "村上", "東葉勝田台"]
    }
  }
}
